[{"OBJECT_NAME":"STARLINK-31759","OBJECT_ID":"2024-090L","EPOCH":"2026-03-09T08:16:03.036576","MEAN_MOTION":15.27570206,"ECCENTRICITY":0.0002695,"INCLINATION":43.0006,"RA_OF_ASC_NODE":185.7591,"ARG_OF_PERICENTER":291.1394,"MEAN_ANOMALY":68.9169,"EPHEMERIS_TYPE":0,"CLASSIFICATION_TYPE":"U","NORAD_CAT_ID":59740,"ELEMENT_SET_NO":999,"REV_AT_EPOCH":10338,"BSTAR":2.8101046e-5,"MEAN_MOTION_DOT":5.1e-6,"MEAN_MOTION_DDOT":0},{"OBJECT_NAME":"STARLINK-36554","OBJECT_ID":"2026-012K","EPOCH":"2026-03-08T17:06:15.871680","MEAN_MOTION":15.27591469,"ECCENTRICITY":6.955e-5,"INCLINATION":42.9934,"RA_OF_ASC_NODE":319.8184,"ARG_OF_PERICENTER":339.2059,"MEAN_ANOMALY":20.8765,"EPHEMERIS_TYPE":0,"CLASSIFICATION_TYPE":"U","NORAD_CAT_ID":67502,"ELEMENT_SET_NO":999,"REV_AT_EPOCH":761,"BSTAR":0.0011969118,"MEAN_MOTION_DOT":0.00032833,"MEAN_MOTION_DDOT":0}]
